{
  "type": "FeatureCollection",
  "_source": "OpenStreetMap (ODbL)",
  "_sample": false,
  "features": [
    {
      "type": "Feature",
      "properties": {
        "name": "Amrita Vishwa Vidyapeetam, Bengaluru"
      },
      "geometry": {
        "type": "Polygon",
        "coordinates": [
          [
            [
              77.674036,
              12.893287
            ],
            [
              77.674995,
              12.893258
            ],
            [
              77.674969,
              12.892841
            ],
            [
              77.676518,
              12.892739
            ],
            [
              77.676966,
              12.892522
            ],
            [
              77.67721,
              12.89242
            ],
            [
              77.677019,
              12.8918
            ],
            [
              77.6779,
              12.891664
            ],
            [
              77.677888,
              12.891628
            ],
            [
              77.678002,
              12.891617
            ],
            [
              77.678299,
              12.893051
            ],
            [
              77.678232,
              12.893112
            ],
            [
              77.677725,
              12.893001
            ],
            [
              77.677654,
              12.893345
            ],
            [
              77.678228,
              12.893174
            ],
            [
              77.677259,
              12.894259
            ],
            [
              77.677444,
              12.894515
            ],
            [
              77.674865,
              12.895557
            ],
            [
              77.674778,
              12.895502
            ],
            [
              77.674036,
              12.893287
            ]
          ]
        ]
      }
    }
  ]
}
