{
  "type": "FeatureCollection",
  "_source": "OpenStreetMap (ODbL)",
  "_sample": false,
  "_readme": "Building footprints from OpenStreetMap (ODbL), clipped to the campus boundary. Add a UNIQUE name to every building (indoor.geojson references buildings by exact name), an optional cat (one of the CATEGORIES keys in scripts/build-data.mjs), and optional levels (int, default 1).",
  "features": [
    {
      "type": "Feature",
      "properties": {
        "name": "",
        "cat": "",
        "levels": 1,
        "osm": "way/631815097"
      },
      "geometry": {
        "type": "Polygon",
        "coordinates": [
          [
            [
              77.674697,
              12.894737
            ],
            [
              77.675099,
              12.894572
            ],
            [
              77.675463,
              12.894423
            ],
            [
              77.675479,
              12.89446
            ],
            [
              77.675346,
              12.894514
            ],
            [
              77.675562,
              12.895015
            ],
            [
              77.675917,
              12.89487
            ],
            [
              77.675706,
              12.894379
            ],
            [
              77.675541,
              12.894447
            ],
            [
              77.675524,
              12.894405
            ],
            [
              77.675475,
              12.894293
            ],
            [
              77.675327,
              12.89395
            ],
            [
              77.675297,
              12.893962
            ],
            [
              77.67526,
              12.893878
            ],
            [
              77.674832,
              12.894053
            ],
            [
              77.674732,
              12.893823
            ],
            [
              77.674412,
              12.893954
            ],
            [
              77.674457,
              12.894059
            ],
            [
              77.674767,
              12.893931
            ],
            [
              77.674814,
              12.894039
            ],
            [
              77.674488,
              12.894173
            ],
            [
              77.674543,
              12.8943
            ],
            [
              77.674848,
              12.894174
            ],
            [
              77.674885,
              12.894261
            ],
            [
              77.674554,
              12.894397
            ],
            [
              77.674607,
              12.89452
            ],
            [
              77.674914,
              12.894394
            ],
            [
              77.674944,
              12.894464
            ],
            [
              77.674634,
              12.894591
            ],
            [
              77.674697,
              12.894737
            ]
          ]
        ]
      }
    },
    {
      "type": "Feature",
      "properties": {
        "name": "",
        "cat": "",
        "levels": 1,
        "osm": "way/631815100"
      },
      "geometry": {
        "type": "Polygon",
        "coordinates": [
          [
            [
              77.675613,
              12.893985
            ],
            [
              77.67562,
              12.893842
            ],
            [
              77.675803,
              12.893851
            ],
            [
              77.675796,
              12.893993
            ],
            [
              77.675613,
              12.893985
            ]
          ]
        ]
      }
    },
    {
      "type": "Feature",
      "properties": {
        "name": "",
        "cat": "",
        "levels": 1,
        "osm": "way/631815102"
      },
      "geometry": {
        "type": "Polygon",
        "coordinates": [
          [
            [
              77.675843,
              12.894027
            ],
            [
              77.676147,
              12.894059
            ],
            [
              77.676157,
              12.893961
            ],
            [
              77.675834,
              12.89393
            ],
            [
              77.675843,
              12.894027
            ]
          ]
        ]
      }
    },
    {
      "type": "Feature",
      "properties": {
        "name": "",
        "cat": "",
        "levels": 1,
        "osm": "way/631815104"
      },
      "geometry": {
        "type": "Polygon",
        "coordinates": [
          [
            [
              77.676329,
              12.894053
            ],
            [
              77.677196,
              12.894293
            ],
            [
              77.677134,
              12.894505
            ],
            [
              77.677009,
              12.89447
            ],
            [
              77.676979,
              12.894573
            ],
            [
              77.676697,
              12.894495
            ],
            [
              77.676727,
              12.894395
            ],
            [
              77.676266,
              12.894267
            ],
            [
              77.676329,
              12.894053
            ]
          ]
        ]
      }
    },
    {
      "type": "Feature",
      "properties": {
        "name": "cafeteria",
        "cat": "",
        "levels": 1,
        "osm": "way/1453020421"
      },
      "geometry": {
        "type": "Polygon",
        "coordinates": [
          [
            [
              77.674896,
              12.893861
            ],
            [
              77.67526,
              12.893878
            ],
            [
              77.675221,
              12.893793
            ],
            [
              77.674901,
              12.893739
            ],
            [
              77.674896,
              12.893861
            ]
          ]
        ]
      }
    }
  ]
}
